{
  "type": "FeatureCollection",
  "features": [
    {
      "type": "Feature",
      "properties": {
        "norad_id": 66621,
        "name": "STARLINK-35847",
        "group": "last-30-days",
        "lat": 49.25861776370276,
        "lon": -86.76007792383967,
        "alt_km": 343.25780702698376,
        "timestamp": "2025-12-07T11:27:48.741534+00:00",
        "meta_object_name": "STARLINK-35847",
        "meta_object_id": "2025-271E",
        "meta_epoch": "2025-12-06T22:00:01.999584",
        "meta_mean_motion": 15.74578632,
        "meta_eccentricity": 0.00011489,
        "meta_inclination": 53.1577,
        "meta_ra_of_asc_node": 215.5124,
        "meta_arg_of_pericenter": 87.166,
        "meta_mean_anomaly": 44.2088,
        "meta_ephemeris_type": 0,
        "meta_classification_type": "U",
        "meta_norad_cat_id": 66621,
        "meta_element_set_no": 999,
        "meta_rev_at_epoch": 330,
        "meta_bstar": -0.010355992,
        "meta_mean_motion_dot": -0.01372481,
        "meta_mean_motion_ddot": 0,
        "tle_line1": "1 66621U 25271E   25340.91668981 -.01372481  00000+0 -10356-1 0  9993",
        "tle_line2": "2 66621  53.1577 215.5124 0001148  87.1660  44.2088 15.74578632  3303"
      },
      "geometry": {
        "type": "Point",
        "coordinates": [
          -86.76007792383967,
          49.25861776370276
        ]
      }
    },
    {
      "type": "Feature",
      "properties": {
        "norad_id": 66622,
        "name": "STARLINK-35950",
        "group": "last-30-days",
        "lat": 18.922941716391264,
        "lon": -132.27569793933037,
        "alt_km": 348.1913381699287,
        "timestamp": "2025-12-07T11:27:48.741544+00:00",
        "meta_object_name": "STARLINK-35950",
        "meta_object_id": "2025-271F",
        "meta_epoch": "2025-12-06T22:00:01.999584",
        "meta_mean_motion": 15.74591892,
        "meta_eccentricity": 0.0001509,
        "meta_inclination": 53.1581,
        "meta_ra_of_asc_node": 215.6123,
        "meta_arg_of_pericenter": 70.6386,
        "meta_mean_anomaly": 13.4567,
        "meta_ephemeris_type": 0,
        "meta_classification_type": "U",
        "meta_norad_cat_id": 66622,
        "meta_element_set_no": 999,
        "meta_rev_at_epoch": 330,
        "meta_bstar": -0.010509401,
        "meta_mean_motion_dot": -0.01391455,
        "meta_mean_motion_ddot": 0,
        "tle_line1": "1 66622U 25271F   25340.91668981 -.01391455  00000+0 -10509-1 0  9996",
        "tle_line2": "2 66622  53.1581 215.6123 0001509  70.6386  13.4567 15.74591892  3305"
      },
      "geometry": {
        "type": "Point",
        "coordinates": [
          -132.27569793933037,
          18.922941716391264
        ]
      }
    },
    {
      "type": "Feature",
      "properties": {
        "norad_id": 66623,
        "name": "STARLINK-35920",
        "group": "last-30-days",
        "lat": 21.855329756072585,
        "lon": -129.67658522550167,
        "alt_km": 348.4370156925106,
        "timestamp": "2025-12-07T11:27:48.741554+00:00",
        "meta_object_name": "STARLINK-35920",
        "meta_object_id": "2025-271G",
        "meta_epoch": "2025-12-06T22:00:01.999584",
        "meta_mean_motion": 15.74671208,
        "meta_eccentricity": 0.00010981,
        "meta_inclination": 53.1578,
        "meta_ra_of_asc_node": 215.6044,
        "meta_arg_of_pericenter": 115.8393,
        "meta_mean_anomaly": 332.0456,
        "meta_ephemeris_type": 0,
        "meta_classification_type": "U",
        "meta_norad_cat_id": 66623,
        "meta_element_set_no": 999,
        "meta_rev_at_epoch": 330,
        "meta_bstar": -0.011324732,
        "meta_mean_motion_dot": -0.01490689,
        "meta_mean_motion_ddot": 0,
        "tle_line1": "1 66623U 25271G   25340.91668981 -.01490689  00000+0 -11325-1 0  9993",
        "tle_line2": "2 66623  53.1578 215.6044 0001098 115.8393 332.0456 15.74671208  3304"
      },
      "geometry": {
        "type": "Point",
        "coordinates": [
          -129.67658522550167,
          21.855329756072585
        ]
      }
    },
    {
      "type": "Feature",
      "properties": {
        "norad_id": 66624,
        "name": "STARLINK-35927",
        "group": "last-30-days",
        "lat": 20.397091062459825,
        "lon": -130.9856450391705,
        "alt_km": 348.23837745499077,
        "timestamp": "2025-12-07T11:27:48.741569+00:00",
        "meta_object_name": "STARLINK-35927",
        "meta_object_id": "2025-271H",
        "meta_epoch": "2025-12-06T22:00:01.999584",
        "meta_mean_motion": 15.74645285,
        "meta_eccentricity": 7.857e-05,
        "meta_inclination": 53.1581,
        "meta_ra_of_asc_node": 215.6086,
        "meta_arg_of_pericenter": 63.4032,
        "meta_mean_anomaly": 22.5681,
        "meta_ephemeris_type": 0,
        "meta_classification_type": "U",
        "meta_norad_cat_id": 66624,
        "meta_element_set_no": 999,
        "meta_rev_at_epoch": 330,
        "meta_bstar": -0.010991253,
        "meta_mean_motion_dot": -0.01450346,
        "meta_mean_motion_ddot": 0,
        "tle_line1": "1 66624U 25271H   25340.91668981 -.01450346  00000+0 -10991-1 0  9998",
        "tle_line2": "2 66624  53.1581 215.6086 0000785  63.4032  22.5681 15.74645285  3302"
      },
      "geometry": {
        "type": "Point",
        "coordinates": [
          -130.9856450391705,
          20.397091062459825
        ]
      }
    },
    {
      "type": "Feature",
      "properties": {
        "norad_id": 66625,
        "name": "STARLINK-35929",
        "group": "last-30-days",
        "lat": 23.323545860838596,
        "lon": -128.32131812745976,
        "alt_km": 347.77113394188655,
        "timestamp": "2025-12-07T11:27:48.741579+00:00",
        "meta_object_name": "STARLINK-35929",
        "meta_object_id": "2025-271J",
        "meta_epoch": "2025-12-06T22:00:01.999584",
        "meta_mean_motion": 15.74623107,
        "meta_eccentricity": 0.00012423,
        "meta_inclination": 53.1581,
        "meta_ra_of_asc_node": 215.6004,
        "meta_arg_of_pericenter": 84.7473,
        "meta_mean_anomaly": 5.093,
        "meta_ephemeris_type": 0,
        "meta_classification_type": "U",
        "meta_norad_cat_id": 66625,
        "meta_element_set_no": 999,
        "meta_rev_at_epoch": 330,
        "meta_bstar": -0.010907561,
        "meta_mean_motion_dot": -0.01439623,
        "meta_mean_motion_ddot": 0,
        "tle_line1": "1 66625U 25271J   25340.91668981 -.01439623  00000+0 -10908-1 0  9992",
        "tle_line2": "2 66625  53.1581 215.6004 0001242  84.7473   5.0930 15.74623107  3309"
      },
      "geometry": {
        "type": "Point",
        "coordinates": [
          -128.32131812745976,
          23.323545860838596
        ]
      }
    },
    {
      "type": "Feature",
      "properties": {
        "norad_id": 66626,
        "name": "STARLINK-35902",
        "group": "last-30-days",
        "lat": 24.772834720628484,
        "lon": -126.9426476278787,
        "alt_km": 347.6825511728075,
        "timestamp": "2025-12-07T11:27:48.741589+00:00",
        "meta_object_name": "STARLINK-35902",
        "meta_object_id": "2025-271K",
        "meta_epoch": "2025-12-06T22:00:01.999584",
        "meta_mean_motion": 15.74546719,
        "meta_eccentricity": 9.369e-05,
        "meta_inclination": 53.1578,
        "meta_ra_of_asc_node": 215.5958,
        "meta_arg_of_pericenter": 96.8292,
        "meta_mean_anomaly": 355.0003,
        "meta_ephemeris_type": 0,
        "meta_classification_type": "U",
        "meta_norad_cat_id": 66626,
        "meta_element_set_no": 999,
        "meta_rev_at_epoch": 330,
        "meta_bstar": -0.010425565,
        "meta_mean_motion_dot": -0.01378846,
        "meta_mean_motion_ddot": 0,
        "tle_line1": "1 66626U 25271K   25340.91668981 -.01378846  00000+0 -10426-1 0  9997",
        "tle_line2": "2 66626  53.1578 215.5958 0000936  96.8292 355.0003 15.74546719  3307"
      },
      "geometry": {
        "type": "Point",
        "coordinates": [
          -126.9426476278787,
          24.772834720628484
        ]
      }
    },
    {
      "type": "Feature",
      "properties": {
        "norad_id": 66627,
        "name": "STARLINK-35904",
        "group": "last-30-days",
        "lat": 26.195203244983887,
        "lon": -125.54514985982217,
        "alt_km": 347.53495667392417,
        "timestamp": "2025-12-07T11:27:48.741602+00:00",
        "meta_object_name": "STARLINK-35904",
        "meta_object_id": "2025-271L",
        "meta_epoch": "2025-12-06T22:00:01.999584",
        "meta_mean_motion": 15.74570013,
        "meta_eccentricity": 7.752e-05,
        "meta_inclination": 53.1576,
        "meta_ra_of_asc_node": 215.5915,
        "meta_arg_of_pericenter": 68.4935,
        "meta_mean_anomaly": 25.2927,
        "meta_ephemeris_type": 0,
        "meta_classification_type": "U",
        "meta_norad_cat_id": 66627,
        "meta_element_set_no": 999,
        "meta_rev_at_epoch": 314,
        "meta_bstar": -0.0110799,
        "meta_mean_motion_dot": -0.01456402,
        "meta_mean_motion_ddot": 0,
        "tle_line1": "1 66627U 25271L   25340.91668981 -.01456402  00000+0 -11080-1 0  9990",
        "tle_line2": "2 66627  53.1576 215.5915 0000775  68.4935  25.2927 15.74570013  3146"
      },
      "geometry": {
        "type": "Point",
        "coordinates": [
          -125.54514985982217,
          26.195203244983887
        ]
      }
    }
  ]
}